[{"OBJECT_NAME":"TITAN 34D TRANSTAGE DEB","OBJECT_ID":"1988-077D","EPOCH":"2026-03-02T15:47:51.592992","MEAN_MOTION":2.16285241,"ECCENTRICITY":0.7291162,"INCLINATION":26.6864,"RA_OF_ASC_NODE":211.5651,"ARG_OF_PERICENTER":345.1657,"MEAN_ANOMALY":1.342,"EPHEMERIS_TYPE":0,"CLASSIFICATION_TYPE":"U","NORAD_CAT_ID":22668,"ELEMENT_SET_NO":999,"REV_AT_EPOCH":5287,"BSTAR":0.00064619,"MEAN_MOTION_DOT":-1.14e-6,"MEAN_MOTION_DDOT":0},{"OBJECT_NAME":"TITAN 34D TRANSTAGE DEB","OBJECT_ID":"1988-077E","EPOCH":"2026-03-01T10:44:22.121664","MEAN_MOTION":2.1175684,"ECCENTRICITY":0.7325849,"INCLINATION":26.6652,"RA_OF_ASC_NODE":242.251,"ARG_OF_PERICENTER":302.699,"MEAN_ANOMALY":6.7687,"EPHEMERIS_TYPE":0,"CLASSIFICATION_TYPE":"U","NORAD_CAT_ID":22669,"ELEMENT_SET_NO":999,"REV_AT_EPOCH":5183,"BSTAR":0.00078786,"MEAN_MOTION_DOT":-1.34e-6,"MEAN_MOTION_DDOT":0},{"OBJECT_NAME":"HGS-4 (GALAXY 4)","OBJECT_ID":"1993-039A","EPOCH":"2026-03-01T19:39:17.553024","MEAN_MOTION":1.00265397,"ECCENTRICITY":0.00157304,"INCLINATION":14.5743,"RA_OF_ASC_NODE":355.9568,"ARG_OF_PERICENTER":31.1881,"MEAN_ANOMALY":143.9985,"EPHEMERIS_TYPE":0,"CLASSIFICATION_TYPE":"U","NORAD_CAT_ID":22694,"ELEMENT_SET_NO":999,"REV_AT_EPOCH":11792,"BSTAR":0,"MEAN_MOTION_DOT":-1.35e-6,"MEAN_MOTION_DDOT":0},{"OBJECT_NAME":"HISPASAT 1B","OBJECT_ID":"1993-048A","EPOCH":"2026-03-02T16:31:32.144736","MEAN_MOTION":0.99729411,"ECCENTRICITY":0.00084168,"INCLINATION":13.6374,"RA_OF_ASC_NODE":13.8761,"ARG_OF_PERICENTER":338.5069,"MEAN_ANOMALY":203.9551,"EPHEMERIS_TYPE":0,"CLASSIFICATION_TYPE":"U","NORAD_CAT_ID":22723,"ELEMENT_SET_NO":999,"REV_AT_EPOCH":11877,"BSTAR":0,"MEAN_MOTION_DOT":-3.2e-6,"MEAN_MOTION_DDOT":0},{"OBJECT_NAME":"INSAT-2B","OBJECT_ID":"1993-048B","EPOCH":"2026-03-03T00:14:36.060576","MEAN_MOTION":0.99974867,"ECCENTRICITY":0.0016896,"INCLINATION":14.4184,"RA_OF_ASC_NODE":3.395,"ARG_OF_PERICENTER":232.1374,"MEAN_ANOMALY":322.0976,"EPHEMERIS_TYPE":0,"CLASSIFICATION_TYPE":"U","NORAD_CAT_ID":22724,"ELEMENT_SET_NO":999,"REV_AT_EPOCH":11951,"BSTAR":0,"MEAN_MOTION_DOT":9.9e-7,"MEAN_MOTION_DDOT":0},{"OBJECT_NAME":"IABS R/B","OBJECT_ID":"1993-046C","EPOCH":"2026-03-01T00:03:34.244352","MEAN_MOTION":1.02135944,"ECCENTRICITY":0.00830376,"INCLINATION":12.5637,"RA_OF_ASC_NODE":337.6875,"ARG_OF_PERICENTER":139.2167,"MEAN_ANOMALY":221.4336,"EPHEMERIS_TYPE":0,"CLASSIFICATION_TYPE":"U","NORAD_CAT_ID":22738,"ELEMENT_SET_NO":999,"REV_AT_EPOCH":2522,"BSTAR":0,"MEAN_MOTION_DOT":1.0e-7,"MEAN_MOTION_DDOT":0},{"OBJECT_NAME":"SL-6 R/B(2)","OBJECT_ID":"1993-051D","EPOCH":"2026-03-02T15:48:46.442304","MEAN_MOTION":2.05618095,"ECCENTRICITY":0.6249363,"INCLINATION":68.2714,"RA_OF_ASC_NODE":304.7966,"ARG_OF_PERICENTER":74.3909,"MEAN_ANOMALY":342.9479,"EPHEMERIS_TYPE":0,"CLASSIFICATION_TYPE":"U","NORAD_CAT_ID":22744,"ELEMENT_SET_NO":999,"REV_AT_EPOCH":24304,"BSTAR":0,"MEAN_MOTION_DOT":-7.57e-6,"MEAN_MOTION_DDOT":0},{"OBJECT_NAME":"UFO 2 (USA 95)","OBJECT_ID":"1993-056A","EPOCH":"2026-03-03T00:09:04.445280","MEAN_MOTION":1.00272221,"ECCENTRICITY":0.0008856,"INCLINATION":11.8577,"RA_OF_ASC_NODE":4.1284,"ARG_OF_PERICENTER":335.6735,"MEAN_ANOMALY":211.8911,"EPHEMERIS_TYPE":0,"CLASSIFICATION_TYPE":"U","NORAD_CAT_ID":22787,"ELEMENT_SET_NO":999,"REV_AT_EPOCH":11748,"BSTAR":0,"MEAN_MOTION_DOT":1.15e-6,"MEAN_MOTION_DDOT":0},{"OBJECT_NAME":"ACTS","OBJECT_ID":"1993-058B","EPOCH":"2026-03-02T11:58:40.035072","MEAN_MOTION":1.0027195,"ECCENTRICITY":0.00509999,"INCLINATION":14.5781,"RA_OF_ASC_NODE":356.3921,"ARG_OF_PERICENTER":76.6522,"MEAN_ANOMALY":161.0684,"EPHEMERIS_TYPE":0,"CLASSIFICATION_TYPE":"U","NORAD_CAT_ID":22796,"ELEMENT_SET_NO":999,"REV_AT_EPOCH":12583,"BSTAR":0,"MEAN_MOTION_DOT":-1.19e-6,"MEAN_MOTION_DDOT":0},{"OBJECT_NAME":"TOS R/B","OBJECT_ID":"1993-058D","EPOCH":"2026-03-02T21:16:34.000032","MEAN_MOTION":2.13401894,"ECCENTRICITY":0.7360481,"INCLINATION":15.0569,"RA_OF_ASC_NODE":101.9466,"ARG_OF_PERICENTER":18.0196,"MEAN_ANOMALY":358.3191,"EPHEMERIS_TYPE":0,"CLASSIFICATION_TYPE":"U","NORAD_CAT_ID":22797,"ELEMENT_SET_NO":999,"REV_AT_EPOCH":24612,"BSTAR":0.00076671,"MEAN_MOTION_DOT":4.29e-6,"MEAN_MOTION_DDOT":0},{"OBJECT_NAME":"RADUGA 30","OBJECT_ID":"1993-062A","EPOCH":"2026-03-02T22:07:03.475200","MEAN_MOTION":1.00277555,"ECCENTRICITY":0.0005946,"INCLINATION":14.0639,"RA_OF_ASC_NODE":347.9326,"ARG_OF_PERICENTER":320.1933,"MEAN_ANOMALY":265.0752,"EPHEMERIS_TYPE":0,"CLASSIFICATION_TYPE":"U","NORAD_CAT_ID":22836,"ELEMENT_SET_NO":999,"REV_AT_EPOCH":4493,"BSTAR":0,"MEAN_MOTION_DOT":-1.74e-6,"MEAN_MOTION_DDOT":0},{"OBJECT_NAME":"SL-12 R/B(2)","OBJECT_ID":"1993-062D","EPOCH":"2026-03-03T01:23:38.866272","MEAN_MOTION":1.00281057,"ECCENTRICITY":0.0008114,"INCLINATION":14.0021,"RA_OF_ASC_NODE":347.6623,"ARG_OF_PERICENTER":84.167,"MEAN_ANOMALY":104.5447,"EPHEMERIS_TYPE":0,"CLASSIFICATION_TYPE":"U","NORAD_CAT_ID":22839,"ELEMENT_SET_NO":999,"REV_AT_EPOCH":11779,"BSTAR":0,"MEAN_MOTION_DOT":-7.8e-7,"MEAN_MOTION_DDOT":0},{"OBJECT_NAME":"GORIZONT 28","OBJECT_ID":"1993-069A","EPOCH":"2026-03-02T11:54:28.313856","MEAN_MOTION":0.99648611,"ECCENTRICITY":0.00300547,"INCLINATION":14.1605,"RA_OF_ASC_NODE":348.8184,"ARG_OF_PERICENTER":171.9962,"MEAN_ANOMALY":60.4794,"EPHEMERIS_TYPE":0,"CLASSIFICATION_TYPE":"U","NORAD_CAT_ID":22880,"ELEMENT_SET_NO":999,"REV_AT_EPOCH":11806,"BSTAR":0,"MEAN_MOTION_DOT":2.3e-7,"MEAN_MOTION_DDOT":0},{"OBJECT_NAME":"SL-12 R/B(2)","OBJECT_ID":"1993-069D","EPOCH":"2026-03-02T14:15:09.044352","MEAN_MOTION":1.00469109,"ECCENTRICITY":0.00038,"INCLINATION":13.9108,"RA_OF_ASC_NODE":347.4861,"ARG_OF_PERICENTER":33.0669,"MEAN_ANOMALY":172.1949,"EPHEMERIS_TYPE":0,"CLASSIFICATION_TYPE":"U","NORAD_CAT_ID":22883,"ELEMENT_SET_NO":999,"REV_AT_EPOCH":11799,"BSTAR":0,"MEAN_MOTION_DOT":3.4e-7,"MEAN_MOTION_DDOT":0},{"OBJECT_NAME":"GORIZONT 29","OBJECT_ID":"1993-072A","EPOCH":"2026-03-02T16:24:32.815296","MEAN_MOTION":1.00141705,"ECCENTRICITY":0.00120332,"INCLINATION":14.0366,"RA_OF_ASC_NODE":348.1178,"ARG_OF_PERICENTER":354.6307,"MEAN_ANOMALY":186.3575,"EPHEMERIS_TYPE":0,"CLASSIFICATION_TYPE":"U","NORAD_CAT_ID":22907,"ELEMENT_SET_NO":999,"REV_AT_EPOCH":11810,"BSTAR":0,"MEAN_MOTION_DOT":-3.84e-6,"MEAN_MOTION_DDOT":0},{"OBJECT_NAME":"SOLIDARIDAD 1","OBJECT_ID":"1993-073A","EPOCH":"2026-03-02T10:22:36.641856","MEAN_MOTION":1.0027932,"ECCENTRICITY":0.00091665,"INCLINATION":14.3487,"RA_OF_ASC_NODE":3.1889,"ARG_OF_PERICENTER":268.6469,"MEAN_ANOMALY":297.1684,"EPHEMERIS_TYPE":0,"CLASSIFICATION_TYPE":"U","NORAD_CAT_ID":22911,"ELEMENT_SET_NO":999,"REV_AT_EPOCH":11679,"BSTAR":0,"MEAN_MOTION_DOT":-1.14e-6,"MEAN_MOTION_DDOT":0},{"OBJECT_NAME":"IABS R/B","OBJECT_ID":"1993-074B","EPOCH":"2026-03-01T23:14:27.578400","MEAN_MOTION":0.99997703,"ECCENTRICITY":0.00596177,"INCLINATION":13.8629,"RA_OF_ASC_NODE":342.8226,"ARG_OF_PERICENTER":100.2119,"MEAN_ANOMALY":260.4767,"EPHEMERIS_TYPE":0,"CLASSIFICATION_TYPE":"U","NORAD_CAT_ID":22916,"ELEMENT_SET_NO":999,"REV_AT_EPOCH":2483,"BSTAR":0,"MEAN_MOTION_DOT":5.7e-7,"MEAN_MOTION_DDOT":0}]
