TITAN 34D TRANSTAGE DEB 
1 22668U 88077D   26061.65823603 -.00000114  00000+0  64619-3 0  9997
2 22668  26.6864 211.5651 7291162 345.1657   1.3420  2.16285241 52871
TITAN 34D TRANSTAGE DEB 
1 22669U 88077E   26060.44747826 -.00000134  00000+0  78786-3 0  9998
2 22669  26.6652 242.2510 7325849 302.6990   6.7687  2.11756840 51832
HGS-4 (GALAXY 4)        
1 22694U 93039A   26060.81895316 -.00000135  00000+0  00000+0 0  9990
2 22694  14.5743 355.9568 0015730  31.1881 143.9985  1.00265397117920
HISPASAT 1B             
1 22723U 93048A   26061.68856649 -.00000320  00000+0  00000+0 0  9991
2 22723  13.6374  13.8761 0008416 338.5069 203.9551  0.99729411118772
INSAT-2B                
1 22724U 93048B   26062.01013959  .00000099  00000+0  00000+0 0  9991
2 22724  14.4184   3.3950 0016896 232.1374 322.0976  0.99974867119518
IABS R/B                
1 22738U 93046C   26060.00247968  .00000010  00000+0  00000+0 0  9993
2 22738  12.5637 337.6875 0083037 139.2167 221.4336  1.02135944 25228
SL-6 R/B(2)             
1 22744U 93051D   26061.65887086 -.00000757  00000+0  00000+0 0  9998
2 22744  68.2714 304.7966 6249363  74.3909 342.9479  2.05618095243046
UFO 2 (USA 95)          
1 22787U 93056A   26062.00630145  .00000115  00000+0  00000+0 0  9999
2 22787  11.8577   4.1284 0008856 335.6735 211.8911  1.00272221117486
ACTS                    
1 22796U 93058B   26061.49907448 -.00000119  00000+0  00000+0 0  9991
2 22796  14.5781 356.3921 0050999  76.6522 161.0684  1.00271950125833
TOS R/B                 
1 22797U 93058D   26061.88650463  .00000429  00000+0  76671-3 0  9991
2 22797  15.0569 101.9466 7360481  18.0196 358.3191  2.13401894246123
RADUGA 30               
1 22836U 93062A   26061.92156800 -.00000174  00000+0  00000+0 0  9998
2 22836  14.0639 347.9326 0005946 320.1933 265.0752  1.00277555 44934
SL-12 R/B(2)            
1 22839U 93062D   26062.05808873 -.00000078  00000+0  00000+0 0  9993
2 22839  14.0021 347.6623 0008114  84.1670 104.5447  1.00281057117799
GORIZONT 28             
1 22880U 93069A   26061.49616104  .00000023  00000+0  00000+0 0  9996
2 22880  14.1605 348.8184 0030054 171.9962  60.4794  0.99648611118062
SL-12 R/B(2)            
1 22883U 93069D   26061.59385468  .00000034  00000+0  00000+0 0  9998
2 22883  13.9108 347.4861 0003800  33.0669 172.1949  1.00469109117998
GORIZONT 29             
1 22907U 93072A   26061.68371314 -.00000384  00000+0  00000+0 0  9993
2 22907  14.0366 348.1178 0012033 354.6307 186.3575  1.00141705118106
SOLIDARIDAD 1           
1 22911U 93073A   26061.43236854 -.00000114  00000+0  00000+0 0  9992
2 22911  14.3487   3.1889 0009166 268.6469 297.1684  1.00279320116791
IABS R/B                
1 22916U 93074B   26060.96837475  .00000057  00000+0  00000+0 0  9996
2 22916  13.8629 342.8226 0059617 100.2119 260.4767  0.99997703 24832
